SIRION PATHFINDER-2     
1 43759U 18099B   26141.68611542  .00003712  00000+0  20624-3 0  9991
2 43759  97.4266 191.3758 0009618  41.6230 318.5732 15.14273074408610
CORVUS BC4              
1 43767U 18099K   26141.59077098  .00003119  00000+0  18390-3 0  9990
2 43767  97.4085 185.3518 0010105  94.0235 266.2151 15.12248212408387
M2 PATHFINDER           
1 45727U 20037E   26141.51175674  .00000931  00000+0  70978-4 0  9994
2 45727  97.8155 332.4456 0010057 238.9667 121.0571 15.04541732321480
NETSAT-4                
1 46504U 20068U   26140.95894731  .00012073  00000+0  27705-3 0  9990
2 46504  97.8616 147.0338 0007302  69.3171 290.8858 15.42862153311577
NETSAT-3                
1 46505U 20068V   26141.00886066  .00012570  00000+0  30031-3 0  9998
2 46505  97.8666 145.3392 0007366  82.1229 278.0853 15.41639965311497
NETSAT-1                
1 46506U 20068W   26141.46109014  .00009338  00000+0  28707-3 0  9995
2 46506  97.8754 140.4672 0006977 100.8529 259.3498 15.33913256311206
NETSAT-2                
1 46507U 20068X   26141.48758293  .00016128  00000+0  34677-3 0  9995
2 46507  97.8632 147.4068 0006208  91.2398 268.9560 15.44735783311612
GREENCUBE (IO-117)      
1 53109U 22080E   26141.41483569 -.00000003  00000+0  00000+0 0  9996
2 53109  70.1430 307.5592 0008838 295.9766  63.9983  6.42583336 90341
SITRO-AIS 5 (KATYS)     
1 57176U 23091L   26141.76341573  .00007907  00000+0  28500-3 0  9991
2 57176  97.5069 205.4233 0011579 187.6984 172.4079 15.28764611160300
SITRO-AIS 6 (CHIRKIN)   
1 57192U 23091AC  26141.74800442  .00006223  00000+0  24918-3 0  9991
2 57192  97.5076 204.6644 0011712 191.0378 169.0604 15.25361874160259
SITRO-AIS 8 (ANOKHIN)   
1 57193U 23091AD  26141.69494133  .00009703  00000+0  32272-3 0  9990
2 57193  97.5064 206.8378 0010886 183.4262 176.6907 15.31322493160399
SITRO-AIS 7 (FARTUSHNIY)
1 57194U 23091AE  26141.74585399  .00006113  00000+0  24703-3 0  9994
2 57194  97.5074 204.5007 0011522 192.1203 167.9759 15.25063061160243
SITRO-AIS 10 (BURDAEV)  
1 57199U 23091AK  26141.70519929  .00013396  00000+0  36613-3 0  9995
2 57199  97.5086 211.6356 0007784 157.8093 202.3490 15.37484584160692
SITRO-AIS 9 (SHCHUKIN)  
1 57201U 23091AM  26141.72348234  .00013181  00000+0  36560-3 0  9993
2 57201  97.5084 211.4044 0007983 158.2041 201.9544 15.37027539160682
SITRO-AIS 12 (SMIRENNIY)
1 57204U 23091AQ  26141.71905479  .00013202  00000+0  36286-3 0  9994
2 57204  97.5096 211.8505 0007740 152.9239 207.2410 15.37313974160700
SITRO-AIS 11 (SHEFFER)  
1 57208U 23091AU  26141.73956760  .00014066  00000+0  38148-3 0  9997
2 57208  97.5095 212.1019 0007659 152.6914 207.4735 15.37712371160721
SITRO-AIS 25            
1 59066U 24039R   26141.70912384  .00002697  00000+0  21066-3 0  9993
2 59066  95.3915 216.8994 0147057  61.1801 300.4097 14.93315475120772
SITRO-AIS 26            
1 59067U 24039S   26141.77393513  .00002658  00000+0  20854-3 0  9999
2 59067  95.3916 216.8471 0147397  61.4889 300.1087 14.93117445120773
SITRO-AIS 27            
1 59068U 24039T   26141.75154289  .00003419  00000+0  26529-3 0  9994
2 59068  95.3917 217.0912 0146400  60.2831 301.2873 14.93528779120799
SITRO-AIS 28            
1 59071U 24039U   26141.72958730  .00002915  00000+0  22649-3 0  9997
2 59071  95.3917 217.1220 0146214  60.1790 301.3880 14.93562960120791
GRBBETA                 
1 60237U 24128C   26141.73716770  .00003096  00000+0  21928-3 0  9999
2 60237  61.9903 309.0505 0044299 129.2445 231.2592 15.06392876102289
OOV-CUBE (TUBSAT-30)    
1 60240U 24128F   26141.77135038  .00001619  00000+0  13389-3 0  9990
2 60240  61.9943 317.6745 0047977 128.0183 232.5254 15.02619623102142
ROBUSTA-3A (MEDITERRAN*)
1 60243U 24128J   26141.73855463  .00006019  00000+0  36103-3 0  9998
2 60243  61.9870 301.7461 0045158 122.8969 237.6483 15.11206847102427
LASARSAT                
1 62391U 24247Q   26140.82849373  .00022182  00000+0  47396-3 0  9993
2 62391  44.9760  55.7382 0005860 176.3157 183.7776 15.44503182 79088
CROCUBE                 
1 62394U 24247T   26141.11596255  .00023976  00000+0  48363-3 0  9994
2 62394  44.9732  51.8723 0005581 180.8555 179.2327 15.46151390 79150
FORESAIL-1 PRIME        
1 66778U 25276DS  26141.44142204  .00003229  00000+0  16017-3 0  9994
2 66778  97.4202 215.2063 0002610 162.0335 198.0992 15.18421959 26346
KNACKSAT-2              
1 67683U 98067XZ  26141.03792952  .00031564  00000+0  42652-3 0  9991
2 67683  51.6301  70.7726 0012161  99.9810 260.2555 15.57383266 16046
